{
    "links": {
        "self": "http://www.neowsapp.com/rest/v1/neo/3707697?api_key=iIulBulltgU6a56xZRHN4H3l9WmuAYTsLGpBGhQ2"
    },
    "id": "3707697",
    "neo_reference_id": "3707697",
    "name": "(2015 BO311)",
    "designation": "2015 BO311",
    "nasa_jpl_url": "http://ssd.jpl.nasa.gov/sbdb.cgi?sstr=3707697",
    "absolute_magnitude_h": 22.2,
    "estimated_diameter": {
        "kilometers": {
            "estimated_diameter_min": 0.096506147,
            "estimated_diameter_max": 0.2157943048
        },
        "meters": {
            "estimated_diameter_min": 96.5061469579,
            "estimated_diameter_max": 215.7943048444
        },
        "miles": {
            "estimated_diameter_min": 0.059966121,
            "estimated_diameter_max": 0.134088323
        },
        "feet": {
            "estimated_diameter_min": 316.6212271853,
            "estimated_diameter_max": 707.9865871058
        }
    },
    "is_potentially_hazardous_asteroid": false,
    "close_approach_data": [
        {
            "close_approach_date": "1943-01-28",
            "close_approach_date_full": "1943-Jan-28 23:40",
            "epoch_date_close_approach": -849658800000,
            "relative_velocity": {
                "kilometers_per_second": "9.7821447637",
                "kilometers_per_hour": "35215.7211493604",
                "miles_per_hour": "21881.6796219457"
            },
            "miss_distance": {
                "astronomical": "0.0787238693",
                "lunar": "30.6235851577",
                "kilometers": "11776923.165438391",
                "miles": "7317840.7222201558"
            },
            "orbiting_body": "Mars"
        },
        {
            "close_approach_date": "1966-08-19",
            "close_approach_date_full": "1966-Aug-19 18:09",
            "epoch_date_close_approach": -106293060000,
            "relative_velocity": {
                "kilometers_per_second": "10.0403783939",
                "kilometers_per_hour": "36145.3622181761",
                "miles_per_hour": "22459.3224293995"
            },
            "miss_distance": {
                "astronomical": "0.0459497182",
                "lunar": "17.8744403798",
                "kilometers": "6873979.969820234",
                "miles": "4271293.0907538692"
            },
            "orbiting_body": "Mars"
        },
        {
            "close_approach_date": "2015-03-14",
            "close_approach_date_full": "2015-Mar-14 06:22",
            "epoch_date_close_approach": 1426314120000,
            "relative_velocity": {
                "kilometers_per_second": "1.6804798058",
                "kilometers_per_hour": "6049.7273008599",
                "miles_per_hour": "3759.0652775816"
            },
            "miss_distance": {
                "astronomical": "0.2581637945",
                "lunar": "100.4257160605",
                "kilometers": "38620753.768317715",
                "miles": "23997823.597765867"
            },
            "orbiting_body": "Earth"
        },
        {
            "close_approach_date": "2087-12-04",
            "close_approach_date_full": "2087-Dec-04 05:42",
            "epoch_date_close_approach": 3721354920000,
            "relative_velocity": {
                "kilometers_per_second": "11.0771674818",
                "kilometers_per_hour": "39877.8029345992",
                "miles_per_hour": "24778.5159401125"
            },
            "miss_distance": {
                "astronomical": "0.0655532933",
                "lunar": "25.5002310937",
                "kilometers": "9806633.049165271",
                "miles": "6093559.2146558998"
            },
            "orbiting_body": "Mars"
        },
        {
            "close_approach_date": "2130-04-08",
            "close_approach_date_full": "2130-Apr-08 01:17",
            "epoch_date_close_approach": 5057515020000,
            "relative_velocity": {
                "kilometers_per_second": "10.5964650803",
                "kilometers_per_hour": "38147.2742891012",
                "miles_per_hour": "23703.2327381363"
            },
            "miss_distance": {
                "astronomical": "0.0226128403",
                "lunar": "8.7963948767",
                "kilometers": "3382832.743530161",
                "miles": "2101994.7960357818"
            },
            "orbiting_body": "Mars"
        }
    ],
    "orbital_data": {
        "orbit_id": "15",
        "orbit_determination_date": "2017-04-06 08:36:07",
        "first_observation_date": "2015-01-17",
        "last_observation_date": "2015-05-07",
        "data_arc_in_days": 110,
        "observations_used": 36,
        "orbit_uncertainty": "5",
        "minimum_orbit_intersection": ".236907",
        "jupiter_tisserand_invariant": "3.823",
        "epoch_osculation": "2459000.5",
        "eccentricity": ".3699155373790151",
        "semi_major_axis": "1.930627644932384",
        "inclination": "4.557000328381545",
        "ascending_node_longitude": "91.87823293141284",
        "orbital_period": "979.8197920151471",
        "perihelion_distance": "1.216458482178439",
        "perihelion_argument": "87.00701414072755",
        "aphelion_distance": "2.644796807686329",
        "perihelion_time": "2459067.304609722305",
        "mean_anomaly": "335.4550176511865",
        "mean_motion": ".3674145010477955",
        "equinox": "J2000",
        "orbit_class": {
            "orbit_class_type": "AMO",
            "orbit_class_description": "Near-Earth asteroid orbits similar to that of 1221 Amor",
            "orbit_class_range": "1.017 AU < q (perihelion) < 1.3 AU"
        }
    },
    "is_sentry_object": false
}